[{"OBJECT_NAME":"ONEWEB-0457","OBJECT_ID":"2022-012AB","EPOCH":"2026-01-19T02:49:16.212000","MEAN_MOTION":13.10373067,"ECCENTRICITY":0.00021605,"INCLINATION":87.8764,"RA_OF_ASC_NODE":65.9895,"ARG_OF_PERICENTER":107.4345,"MEAN_ANOMALY":252.7019,"EPHEMERIS_TYPE":0,"CLASSIFICATION_TYPE":"U","NORAD_CAT_ID":51647,"ELEMENT_SET_NO":999,"REV_AT_EPOCH":18982,"BSTAR":0.0020217656,"MEAN_MOTION_DOT":7.18e-6,"MEAN_MOTION_DDOT":0},{"OBJECT_NAME":"ONEWEB-0458","OBJECT_ID":"2022-012AC","EPOCH":"2026-01-19T03:20:19.431456","MEAN_MOTION":13.10370369,"ECCENTRICITY":0.00018863,"INCLINATION":87.8773,"RA_OF_ASC_NODE":65.9622,"ARG_OF_PERICENTER":94.3967,"MEAN_ANOMALY":265.7376,"EPHEMERIS_TYPE":0,"CLASSIFICATION_TYPE":"U","NORAD_CAT_ID":51648,"ELEMENT_SET_NO":999,"REV_AT_EPOCH":18978,"BSTAR":-0.00087338762,"MEAN_MOTION_DOT":-2.92e-6,"MEAN_MOTION_DDOT":0},{"OBJECT_NAME":"ONEWEB-0461","OBJECT_ID":"2022-012AD","EPOCH":"2026-01-19T07:38:17.699424","MEAN_MOTION":13.17650464,"ECCENTRICITY":0.00018397,"INCLINATION":87.9092,"RA_OF_ASC_NODE":35.4326,"ARG_OF_PERICENTER":96.3924,"MEAN_ANOMALY":263.7417,"EPHEMERIS_TYPE":0,"CLASSIFICATION_TYPE":"U","NORAD_CAT_ID":51649,"ELEMENT_SET_NO":999,"REV_AT_EPOCH":19428,"BSTAR":0.00016687849,"MEAN_MOTION_DOT":7.8e-7,"MEAN_MOTION_DDOT":0},{"OBJECT_NAME":"ONEWEB-0463","OBJECT_ID":"2022-012AE","EPOCH":"2026-01-19T07:11:35.130624","MEAN_MOTION":13.17648465,"ECCENTRICITY":0.00018307,"INCLINATION":87.9082,"RA_OF_ASC_NODE":35.4739,"ARG_OF_PERICENTER":96.4278,"MEAN_ANOMALY":263.7062,"EPHEMERIS_TYPE":0,"CLASSIFICATION_TYPE":"U","NORAD_CAT_ID":51650,"ELEMENT_SET_NO":999,"REV_AT_EPOCH":19406,"BSTAR":-9.0600264e-5,"MEAN_MOTION_DOT":-2.2e-7,"MEAN_MOTION_DDOT":0},{"OBJECT_NAME":"ONEWEB-0464","OBJECT_ID":"2022-012AF","EPOCH":"2026-01-19T03:15:32.526432","MEAN_MOTION":13.10370156,"ECCENTRICITY":0.00015347,"INCLINATION":87.8762,"RA_OF_ASC_NODE":65.9955,"ARG_OF_PERICENTER":94.4498,"MEAN_ANOMALY":265.6804,"EPHEMERIS_TYPE":0,"CLASSIFICATION_TYPE":"U","NORAD_CAT_ID":51651,"ELEMENT_SET_NO":999,"REV_AT_EPOCH":18980,"BSTAR":-0.00044436334,"MEAN_MOTION_DOT":-1.42e-6,"MEAN_MOTION_DDOT":0},{"OBJECT_NAME":"ONEWEB-0468","OBJECT_ID":"2022-012AG","EPOCH":"2026-01-19T03:25:05.921760","MEAN_MOTION":13.1037129,"ECCENTRICITY":0.00017193,"INCLINATION":87.8765,"RA_OF_ASC_NODE":65.9879,"ARG_OF_PERICENTER":91.2816,"MEAN_ANOMALY":268.8508,"EPHEMERIS_TYPE":0,"CLASSIFICATION_TYPE":"U","NORAD_CAT_ID":51652,"ELEMENT_SET_NO":999,"REV_AT_EPOCH":18978,"BSTAR":-0.0011942352,"MEAN_MOTION_DOT":-4.04e-6,"MEAN_MOTION_DDOT":0},{"OBJECT_NAME":"ONEWEB-0473","OBJECT_ID":"2022-012AH","EPOCH":"2026-01-19T03:03:36.164160","MEAN_MOTION":13.1037076,"ECCENTRICITY":0.00018042,"INCLINATION":87.8762,"RA_OF_ASC_NODE":65.9932,"ARG_OF_PERICENTER":94.4598,"MEAN_ANOMALY":265.6736,"EPHEMERIS_TYPE":0,"CLASSIFICATION_TYPE":"U","NORAD_CAT_ID":51653,"ELEMENT_SET_NO":999,"REV_AT_EPOCH":18978,"BSTAR":0.00088585687,"MEAN_MOTION_DOT":3.22e-6,"MEAN_MOTION_DDOT":0},{"OBJECT_NAME":"ONEWEB-0474","OBJECT_ID":"2022-012AJ","EPOCH":"2026-01-19T02:51:39.560832","MEAN_MOTION":13.10372149,"ECCENTRICITY":0.00016249,"INCLINATION":87.8772,"RA_OF_ASC_NODE":65.965,"ARG_OF_PERICENTER":90.2842,"MEAN_ANOMALY":269.8472,"EPHEMERIS_TYPE":0,"CLASSIFICATION_TYPE":"U","NORAD_CAT_ID":51654,"ELEMENT_SET_NO":999,"REV_AT_EPOCH":18977,"BSTAR":0.0017631843,"MEAN_MOTION_DOT":6.28e-6,"MEAN_MOTION_DDOT":0},{"OBJECT_NAME":"ONEWEB-0475","OBJECT_ID":"2022-012AK","EPOCH":"2026-01-19T07:28:35.042016","MEAN_MOTION":13.17649057,"ECCENTRICITY":0.00019103,"INCLINATION":87.9081,"RA_OF_ASC_NODE":35.4627,"ARG_OF_PERICENTER":70.6621,"MEAN_ANOMALY":289.4717,"EPHEMERIS_TYPE":0,"CLASSIFICATION_TYPE":"U","NORAD_CAT_ID":51655,"ELEMENT_SET_NO":999,"REV_AT_EPOCH":19408,"BSTAR":0.00020899736,"MEAN_MOTION_DOT":9.4e-7,"MEAN_MOTION_DDOT":0},{"OBJECT_NAME":"ONEWEB-0490","OBJECT_ID":"2022-138A","EPOCH":"2026-01-19T07:20:57.767424","MEAN_MOTION":13.19726039,"ECCENTRICITY":0.00015992,"INCLINATION":87.9246,"RA_OF_ASC_NODE":334.5868,"ARG_OF_PERICENTER":75.5296,"MEAN_ANOMALY":284.6015,"EPHEMERIS_TYPE":0,"CLASSIFICATION_TYPE":"U","NORAD_CAT_ID":54113,"ELEMENT_SET_NO":999,"REV_AT_EPOCH":15719,"BSTAR":-1.7256008e-5,"MEAN_MOTION_DOT":6.0e-8,"MEAN_MOTION_DDOT":0},{"OBJECT_NAME":"ONEWEB-0492","OBJECT_ID":"2022-138B","EPOCH":"2026-01-19T06:08:09.938976","MEAN_MOTION":13.19725869,"ECCENTRICITY":0.00015275,"INCLINATION":87.9238,"RA_OF_ASC_NODE":334.6088,"ARG_OF_PERICENTER":80.2267,"MEAN_ANOMALY":279.9038,"EPHEMERIS_TYPE":0,"CLASSIFICATION_TYPE":"U","NORAD_CAT_ID":54114,"ELEMENT_SET_NO":999,"REV_AT_EPOCH":15719,"BSTAR":-8.464091e-6,"MEAN_MOTION_DOT":1.0e-7,"MEAN_MOTION_DDOT":0},{"OBJECT_NAME":"ONEWEB-0495","OBJECT_ID":"2022-138C","EPOCH":"2026-01-19T07:25:29.956800","MEAN_MOTION":13.19726837,"ECCENTRICITY":0.00013646,"INCLINATION":87.9232,"RA_OF_ASC_NODE":334.6007,"ARG_OF_PERICENTER":57.232,"MEAN_ANOMALY":302.8944,"EPHEMERIS_TYPE":0,"CLASSIFICATION_TYPE":"U","NORAD_CAT_ID":54115,"ELEMENT_SET_NO":999,"REV_AT_EPOCH":15718,"BSTAR":7.8897269e-5,"MEAN_MOTION_DOT":4.5e-7,"MEAN_MOTION_DDOT":0},{"OBJECT_NAME":"ONEWEB-0497","OBJECT_ID":"2022-138D","EPOCH":"2026-01-18T20:48:39.002112","MEAN_MOTION":13.19725897,"ECCENTRICITY":0.00016816,"INCLINATION":87.924,"RA_OF_ASC_NODE":334.6774,"ARG_OF_PERICENTER":77.793,"MEAN_ANOMALY":282.3391,"EPHEMERIS_TYPE":0,"CLASSIFICATION_TYPE":"U","NORAD_CAT_ID":54116,"ELEMENT_SET_NO":999,"REV_AT_EPOCH":15711,"BSTAR":-0.00014274194,"MEAN_MOTION_DOT":-4.4e-7,"MEAN_MOTION_DDOT":0},{"OBJECT_NAME":"ONEWEB-0499","OBJECT_ID":"2022-138E","EPOCH":"2026-01-19T07:19:48.606816","MEAN_MOTION":13.19724715,"ECCENTRICITY":0.00018064,"INCLINATION":87.9234,"RA_OF_ASC_NODE":334.6016,"ARG_OF_PERICENTER":73.0324,"MEAN_ANOMALY":287.1006,"EPHEMERIS_TYPE":0,"CLASSIFICATION_TYPE":"U","NORAD_CAT_ID":54117,"ELEMENT_SET_NO":999,"REV_AT_EPOCH":15718,"BSTAR":0.00013720319,"MEAN_MOTION_DOT":6.8e-7,"MEAN_MOTION_DDOT":0},{"OBJECT_NAME":"ONEWEB-0500","OBJECT_ID":"2022-138F","EPOCH":"2026-01-19T07:23:13.799040","MEAN_MOTION":13.19726536,"ECCENTRICITY":0.00017231,"INCLINATION":87.9237,"RA_OF_ASC_NODE":334.5897,"ARG_OF_PERICENTER":82.788,"MEAN_ANOMALY":277.3448,"EPHEMERIS_TYPE":0,"CLASSIFICATION_TYPE":"U","NORAD_CAT_ID":54118,"ELEMENT_SET_NO":999,"REV_AT_EPOCH":15719,"BSTAR":4.1504512e-5,"MEAN_MOTION_DOT":3.0e-7,"MEAN_MOTION_DDOT":0},{"OBJECT_NAME":"ONEWEB-0501","OBJECT_ID":"2022-138G","EPOCH":"2026-01-19T06:17:16.450080","MEAN_MOTION":13.19726756,"ECCENTRICITY":0.00015651,"INCLINATION":87.9242,"RA_OF_ASC_NODE":334.5998,"ARG_OF_PERICENTER":68.9049,"MEAN_ANOMALY":291.2251,"EPHEMERIS_TYPE":0,"CLASSIFICATION_TYPE":"U","NORAD_CAT_ID":54119,"ELEMENT_SET_NO":999,"REV_AT_EPOCH":15716,"BSTAR":3.8276497e-5,"MEAN_MOTION_DOT":2.8e-7,"MEAN_MOTION_DDOT":0},{"OBJECT_NAME":"ONEWEB-0502","OBJECT_ID":"2022-138H","EPOCH":"2026-01-19T04:07:37.718112","MEAN_MOTION":13.19725297,"ECCENTRICITY":0.0001737,"INCLINATION":87.9244,"RA_OF_ASC_NODE":334.5989,"ARG_OF_PERICENTER":70.2732,"MEAN_ANOMALY":289.8588,"EPHEMERIS_TYPE":0,"CLASSIFICATION_TYPE":"U","NORAD_CAT_ID":54120,"ELEMENT_SET_NO":999,"REV_AT_EPOCH":15717,"BSTAR":6.4074423e-5,"MEAN_MOTION_DOT":3.9e-7,"MEAN_MOTION_DDOT":0}]
