ONEWEB-0457             
1 51647U 22012AB  26019.11754875  .00000718  00000+0  20218-2 0  9996
2 51647  87.8764  65.9895 0002160 107.4345 252.7019 13.10373067189825
ONEWEB-0458             
1 51648U 22012AC  26019.13911379 -.00000292  00000+0 -87339-3 0  9990
2 51648  87.8773  65.9622 0001886  94.3967 265.7376 13.10370369189789
ONEWEB-0461             
1 51649U 22012AD  26019.31826041  .00000078  00000+0  16688-3 0  9991
2 51649  87.9092  35.4326 0001839  96.3924 263.7417 13.17650464194280
ONEWEB-0463             
1 51650U 22012AE  26019.29971216 -.00000022  00000+0 -90600-4 0  9993
2 51650  87.9082  35.4739 0001830  96.4278 263.7062 13.17648465194063
ONEWEB-0464             
1 51651U 22012AF  26019.13579313 -.00000142  00000+0 -44436-3 0  9997
2 51651  87.8762  65.9955 0001534  94.4498 265.6804 13.10370156189802
ONEWEB-0468             
1 51652U 22012AG  26019.14242965 -.00000404  00000+0 -11942-2 0  9995
2 51652  87.8765  65.9879 0001719  91.2816 268.8508 13.10371290189788
ONEWEB-0473             
1 51653U 22012AH  26019.12750190  .00000322  00000+0  88586-3 0  9994
2 51653  87.8762  65.9932 0001804  94.4598 265.6736 13.10370760189782
ONEWEB-0474             
1 51654U 22012AJ  26019.11920788  .00000628  00000+0  17632-2 0  9998
2 51654  87.8772  65.9650 0001624  90.2842 269.8472 13.10372149189772
ONEWEB-0475             
1 51655U 22012AK  26019.31151669  .00000094  00000+0  20900-3 0  9995
2 51655  87.9081  35.4627 0001910  70.6621 289.4717 13.17649057194080
ONEWEB-0490             
1 54113U 22138A   26019.30622416  .00000006  00000+0 -17256-4 0  9993
2 54113  87.9246 334.5868 0001599  75.5296 284.6015 13.19726039157197
ONEWEB-0492             
1 54114U 22138B   26019.25567059  .00000010  00000+0 -84641-5 0  9997
2 54114  87.9238 334.6088 0001527  80.2267 279.9038 13.19725869157198
ONEWEB-0495             
1 54115U 22138C   26019.30937450  .00000045  00000+0  78897-4 0  9992
2 54115  87.9232 334.6007 0001364  57.2320 302.8944 13.19726837157184
ONEWEB-0497             
1 54116U 22138D   26018.86711808 -.00000044  00000+0 -14274-3 0  9999
2 54116  87.9240 334.6774 0001681  77.7930 282.3391 13.19725897157117
ONEWEB-0499             
1 54117U 22138E   26019.30542369  .00000068  00000+0  13720-3 0  9993
2 54117  87.9234 334.6016 0001806  73.0324 287.1006 13.19724715157186
ONEWEB-0500             
1 54118U 22138F   26019.30779860  .00000030  00000+0  41505-4 0  9994
2 54118  87.9237 334.5897 0001723  82.7880 277.3448 13.19726536157193
ONEWEB-0501             
1 54119U 22138G   26019.26199595  .00000028  00000+0  38276-4 0  9999
2 54119  87.9242 334.5998 0001565  68.9049 291.2251 13.19726756157167
ONEWEB-0502             
1 54120U 22138H   26019.17196433  .00000039  00000+0  64074-4 0  9996
2 54120  87.9244 334.5989 0001737  70.2732 289.8588 13.19725297157173
